[{"OBJECT_NAME":"SHIYAN-6 01 (SY-6 01)","OBJECT_ID":"2018-094B","EPOCH":"2026-03-09T23:04:36.967872","MEAN_MOTION":15.28649156,"ECCENTRICITY":0.00144834,"INCLINATION":97.3669,"RA_OF_ASC_NODE":84.0964,"ARG_OF_PERICENTER":135.6758,"MEAN_ANOMALY":224.5644,"EPHEMERIS_TYPE":0,"CLASSIFICATION_TYPE":"U","NORAD_CAT_ID":43711,"ELEMENT_SET_NO":999,"REV_AT_EPOCH":40632,"BSTAR":0.00024768444,"MEAN_MOTION_DOT":6.847e-5,"MEAN_MOTION_DDOT":0},{"OBJECT_NAME":"STARLINK-30962","OBJECT_ID":"2023-183X","EPOCH":"2026-03-09T07:16:45.843168","MEAN_MOTION":15.26735702,"ECCENTRICITY":0.00023053,"INCLINATION":43.0039,"RA_OF_ASC_NODE":43.0767,"ARG_OF_PERICENTER":272.6692,"MEAN_ANOMALY":87.3895,"EPHEMERIS_TYPE":0,"CLASSIFICATION_TYPE":"U","NORAD_CAT_ID":58458,"ELEMENT_SET_NO":999,"REV_AT_EPOCH":12668,"BSTAR":-3.0200316e-5,"MEAN_MOTION_DOT":-1.07e-5,"MEAN_MOTION_DDOT":0}]
